AMC-1 (GE-1)            
1 24315U 96054A   22310.44691671  .00000065  00000+0  00000+0 0  9994
2 24315   5.9541  71.9230 0003544 155.4778 208.2471  1.00272199 95803
AMC-3 (GE-3)            
1 24936U 97050A   22309.83058928 -.00000260  00000+0  00000+0 0  9991
2 24936   4.8890  78.1283 0003055 149.6898  44.2427  1.00271320 39205
ASTRA 1G                
1 25071U 97076A   22310.06393567  .00000115  00000+0  00000+0 0  9996
2 25071   6.5674  67.1799 0003607 161.5922 218.9377  1.00274603 91310
ASTRA 2A                
1 25462U 98050A   22310.07152212  .00000069  00000+0  00000+0 0  9992
2 25462   3.7558  84.0183 0003101 138.2467 265.9677  1.00271571 88517
AMC-4 (GE-4)            
1 25954U 99060A   22310.47366271  .00000088  00000+0  00000+0 0  9997
2 25954   1.8760  90.1595 0002576 136.5500 214.5968  1.00271790 84260
NSS-11 (AAP-1)          
1 26554U 00059A   22310.45388669  .00000024  00000+0  00000+0 0  9997
2 26554   0.0413  68.9620 0002241 172.8182 143.2867  1.00270853 80950
AMC-6 (GE-6)            
1 26580U 00067A   22309.67371566  .00000101  00000+0  00000+0 0  9991
2 26580   0.0170 304.2916 0002829 282.5196 281.6178  1.00271267 80681
ASTRA 2D                
1 26638U 00081A   22309.99312892  .00000128  00000+0  00000+0 0  9992
2 26638   7.5909  59.3223 0001597 167.3017 199.7917  1.00273331 80166
AMC-8 (GE-8)            
1 26639U 00081B   22310.47158170  .00000088  00000+0  00000+0 0  9990
2 26639   2.8007  87.0055 0001456  53.7401 299.7065  1.00270938 80057
ASTRA 2C                
1 26853U 01025A   22310.40435684 -.00000258  00000+0  00000+0 0  9998
2 26853   4.9146  77.9292 0003337 159.0096 241.7367  1.00268716 78356
ASTRA 3A                
1 27400U 02015B   22309.43296635 -.00000205  00000+0  00000+0 0  9991
2 27400   7.6887  58.2219 0002097 180.4692 235.0206  1.00269174 75488
NSS-7                   
1 27414U 02019A   22310.19961955 -.00000157  00000+0  00000+0 0  9995
2 27414   6.2282  70.1170 0002520 160.6274 226.5473  1.00274109 75332
NSS-6                   
1 27603U 02057A   22310.45676431  .00000109  00000+0  00000+0 0  9994
2 27603   1.9670  89.9449 0003895 143.2328 167.4325  1.00272855 72810
AMC-11 (GE-11)          
1 28252U 04017A   22310.50007888  .00000068  00000+0  00000+0 0  9997
2 28252   0.0338  35.3320 0002795 182.3844 237.0192  1.00271976 67486
AMC-15                  
1 28446U 04041A   22309.60875132 -.00000092  00000+0  00000+0 0  9991
2 28446   0.0204 330.7370 0002428 253.4730 294.7205  1.00271411 66092
NSS-10 (AMC-12)         
1 28526U 05003A   22309.83747812 -.00000251  00000+0  00000+0 0  9994
2 28526   3.1342  85.7964 0003002 128.4881  94.8203  1.00271300 39927
ASTRA 1KR               
1 29055U 06012A   22310.39285219  .00000119  00000+0  00000+0 0  9996
2 29055   0.0196 269.8182 0005241 315.0523 341.3626  1.00269479 60522
AMC-18                  
1 29644U 06054B   22309.82840927 -.00000218  00000+0  00000+0 0  9996
2 29644   0.0211  76.6586 0002553 149.5399  34.0598  1.00269482 58312
ASTRA 1L                
1 31306U 07016A   22310.49426051  .00000120  00000+0  00000+0 0  9997
2 31306   0.0400 340.4597 0004946 279.5267 342.8583  1.00274597 56810
ASTRA 4A (SIRIUS 4)     
1 32299U 07057A   22309.77417059  .00000030  00000+0  00000+0 0  9991
2 32299   0.0157 335.0120 0002924 247.9022 105.5943  1.00271773 38430
AMC-21                  
1 33275U 08038B   22310.45302215  .00000036  00000+0  00000+0 0  9996
2 33275   0.0166  51.7859 0002687 183.2363 208.7977  1.00271231 52249
ASTRA 1M                
1 33436U 08057A   22309.77696101  .00000117  00000+0  00000+0 0  9999
2 33436   0.0846  93.8577 0004039  98.1661 151.8721  1.00272960 32495
CIEL-2                  
1 33453U 08063A   22309.67572128  .00000055  00000+0  00000+0 0  9997
2 33453   0.0519  94.3209 0003126 131.6061 293.3848  1.00270877 50905
NSS-9                   
1 33749U 09008A   22310.46361181  .00000071  00000+0  00000+0 0  9997
2 33749   0.0304  70.8566 0002332 153.7015 171.0766  1.00271461 50341
SES-7 (PROTOSTAR 2)     
1 34941U 09027A   22310.41091163 -.00000346  00000+0  00000+0 0  9994
2 34941   0.0890  88.0697 0001924 159.2422  54.4972  1.00270857 49384
NSS-12                  
1 36032U 09058A   22310.07143491  .00000069  00000+0  00000+0 0  9996
2 36032   0.0411  61.6220 0002712 170.2743 256.1083  1.00272905 47681
SES-1                   
1 36516U 10016A   22310.51222352 -.00000115  00000+0  00000+0 0  9995
2 36516   0.0231  73.1358 0002825 158.7434 257.2166  1.00270762 45918
ASTRA 3B                
1 36581U 10021A   22310.39233137  .00000136  00000+0  00000+0 0  9994
2 36581   0.0600 319.4867 0004235 260.4527 350.4003  1.00270250 45426
SES-3                   
1 37748U 11035A   22309.60918733 -.00000105  00000+0  00000+0 0  9997
2 37748   0.0205  50.9943 0002821 173.8614 296.2573  1.00269712 41367
ASTRA 1N                
1 37775U 11041A   22309.70528222  .00000117  00000+0  00000+0 0  9997
2 37775   0.0918  66.5346 0000350 290.4310 321.0792  1.00272972 31295
SES-2                   
1 37809U 11049A   22309.82753727 -.00000199  00000+0  00000+0 0  9997
2 37809   0.0112 318.8985 0002452 264.6823  32.3878  1.00272567 40734
QUETZSAT 1              
1 37826U 11054A   22309.82954288 -.00000244  00000+0  00000+0 0  9998
2 37826   0.0300  30.1990 0002840 180.3014  56.1917  1.00272722 36656
SES-4                   
1 38087U 12007A   22309.39354829 -.00000172  00000+0  00000+0 0  9994
2 38087   0.0186 326.7343 0002267 260.9393 296.6334  1.00271576 39251
SES-5                   
1 38652U 12036A   22310.06114525  .00000032  00000+0  00000+0 0  9991
2 38652   0.0581 291.8128 0002074 293.3711 207.0839  1.00270438 37846
ASTRA 2F                
1 38778U 12051A   22310.49617892  .00000149  00000+0  00000+0 0  9998
2 38778   0.0595 245.2571 0004524 340.5402  26.7398  1.00269942 37067
SES-6                   
1 39172U 13026A   22310.41072248 -.00000262  00000+0  00000+0 0  9999
2 39172   0.0204 321.1717 0002430 261.3349 290.4811  1.00270588 34495
O3B FM5                 
1 39188U 13031A   22309.59993943 -.00000023  00000+0  00000+0 0  9998
2 39188   0.0657  14.0134 0002731 215.9708 129.9968  5.00115327171026
O3B FM4                 
1 39189U 13031B   22309.25613439 -.00000023  00000+0  00000+0 0  9991
2 39189   0.0466 352.7732 0002685 236.7883 130.4199  5.00115858171116
O3B FM2                 
1 39190U 13031C   22309.74736642 -.00000023  00000+0  00000+0 0  9999
2 39190   0.0449 346.5985 0002690 241.7370 131.6464  5.00115085171102
O3B PFM                 
1 39191U 13031D   22309.57374960 -.00000023  00000+0  00000+0 0  9992
2 39191   0.0578   9.9430 0002709 215.4372 134.6026  5.00115714171108
ASTRA 2E                
1 39285U 13056A   22310.32826976  .00000149  00000+0  00000+0 0  9995
2 39285   0.0653 336.6133 0002155 250.6561 324.9366  1.00270210 33367
SES-8                   
1 39460U 13071A   22310.50712089 -.00000270  00000+0  00000+0 0  9992
2 39460   0.0125 245.7347 0001362 285.7529 151.8018  1.00271360 32654
ASTRA 5B                
1 39617U 14011B   22310.45813472  .00000154  00000+0  00000+0 0  9993
2 39617   0.0655 304.9111 0004329 270.7850  26.4001  1.00272318 31641
O3B FM3                 
1 40079U 14038A   22309.62855053 -.00000023  00000+0  00000+0 0  9990
2 40079   0.0515 359.8708 0004695 203.7213 156.3913  5.00115321147036
O3B FM7                 
1 40080U 14038B   22309.37472798 -.00000023  00000+0  00000+0 0  9995
2 40080   0.0524 354.9921 0002295 272.9565  92.0300  5.00115505151847
O3B FM6                 
1 40081U 14038C   22309.60100587 -.00000023  00000+0  00000+0 0  9996
2 40081   0.0505 359.6414 0002771 225.9225 134.4183  5.00115300151816
O3B FM8                 
1 40082U 14038D   22310.25457147 -.00000023  00000+0  00000+0 0  9997
2 40082   0.0477 357.5972 0002663 226.0695 136.3173  5.00115699152142
O3B FM10                
1 40348U 14083A   22309.68100783 -.00000023  00000+0  00000+0 0  9998
2 40348   0.0527   9.5364 0002683 216.1758 134.2707  5.00115126143880
O3B FM11                
1 40349U 14083B   22309.49454949 -.00000023  00000+0  00000+0 0  9994
2 40349   0.0567   6.8212 0002781 233.2020 119.9540  5.00115366143890
O3B FM12                
1 40350U 14083C   22308.12253470 -.00000023  00000+0  00000+0 0  9991
2 40350   0.0558   6.5425 0002851 219.8299 133.6086  5.00115255143830
O3B FM9                 
1 40351U 14083D   22309.74846705 -.00000023  00000+0  00000+0 0  9990
2 40351   0.0578   6.4919 0002673 220.4684 133.0223  5.00116095144064
ASTRA 2G                
1 40364U 14089A   22310.32826976  .00000149  00000+0  00000+0 0  9992
2 40364   0.0400 358.7631 0001107 108.7812  84.3773  1.00271049 28794
SES-9                   
1 41380U 16013A   22309.53896369 -.00000349  00000+0  00000+0 0  9997
2 41380   0.0168 286.2483 0001040 230.8322 190.0098  1.00271679 24209
SES-10                  
1 42432U 17017A   22309.53209575 -.00000276  00000+0  00000+0 0  9997
2 42432   0.0153 301.5247 0002997 293.7937 294.0990  1.00272735 20490
SES-15                  
1 42709U 17026A   22306.63048037  .00000052  00000+0  00000+0 0  9997
2 42709   0.0271   3.4641 0000989 189.7690 306.4911  1.00273982 20882
SES-11 (ECHOSTAR 105)   
1 42967U 17063A   22306.52427581 -.00000098  00000+0  00000+0 0  9998
2 42967   0.0149 255.9577 0003330 334.8756 254.7405  1.00276525 18542
SES-14                  
1 43175U 18012B   22310.40932727 -.00000279  00000+0  00000+0 0  9991
2 43175   0.0159 294.8890 0001084 282.3797 288.2133  1.00271709 17820
O3B FM15                
1 43231U 18024A   22309.61452091 -.00000023  00000+0  00000+0 0  9996
2 43231   0.0501  12.2268 0003022 215.0173 132.7353  5.00116084 85011
O3B FM16                
1 43232U 18024B   22309.66792494 -.00000023  00000+0  00000+0 0  9996
2 43232   0.0480  16.4723 0003004 211.5539 131.9531  5.00115906 84938
O3B FM14                
1 43233U 18024C   22309.50772877 -.00000023  00000+0  00000+0 0  9993
2 43233   0.0468  17.6120 0002894 213.0624 129.3048  5.00115302 84931
O3B FM13                
1 43234U 18024D   22305.96322640 -.00000022  00000+0  00000+0 0  9998
2 43234   0.0599  12.8340 0003801 213.6873 133.4520  5.00115173 84868
SES-12                  
1 43488U 18049A   22306.57202238 -.00000277  00000+0  00000+0 0  9996
2 43488   0.0202  78.6481 0002324 170.9099  93.1916  1.00267798 16155
O3B FM20                
1 44112U 19020A   22309.53442497 -.00000023  00000+0  00000+0 0  9992
2 44112   0.0521   9.1348 0003261 223.2965 127.5440  5.00115451 65554
O3B FM19                
1 44113U 19020B   22310.36082590 -.00000023  00000+0  00000+0 0  9990
2 44113   0.0746  14.3463 0002047 242.2469 103.3891  5.00115080 65663
O3B FM17                
1 44114U 19020C   22309.24194080 -.00000023  00000+0  00000+0 0  9994
2 44114   0.0328   4.5084 0003143 222.4409 133.0292  5.00115578 65489
O3B FM18                
1 44115U 19020D   22307.98909864 -.00000023  00000+0  00000+0 0  9998
2 44115   0.0525   9.2352 0002930 214.7178 136.0283  5.00115756 65558
SES-17                  
1 49332U 21095A   22309.45286130 -.00000276  00000+0  00000+0 0  9997
2 49332   0.0053 189.9954 0001264  34.0677 276.5445  1.00269758  4618
SES-22                  
1 52933U 22071A   22308.67019003  .00000082  00000+0  00000+0 0  9993
2 52933   0.0096 240.1449 0002914 355.1845 274.8303  1.00271908  1310
